{"type": "FeatureCollection", "features": [ {"type": "Feature", "properties": {"norad_id": 34508, "name": "IRIDIUM 33 DEB", "group": "iridium-33-debris", "lat": -2.320924142216263, "lon": -72.30440856356495, "alt_km": 726.5729314208902, "timestamp": "2025-12-01T03:58:49.183960+00:00", "meta": {"OBJECT_NAME": "IRIDIUM 33 DEB", "OBJECT_ID": "1997-051GZ", "EPOCH": "2025-11-30T18:47:00.484800", "MEAN_MOTION": 14.38237848, "ECCENTRICITY": 0.0065293, "INCLINATION": 86.3691, "RA_OF_ASC_NODE": 107.7106, "ARG_OF_PERICENTER": 211.8726, "MEAN_ANOMALY": 147.8515, "EPHEMERIS_TYPE": 0, "CLASSIFICATION_TYPE": "U", "NORAD_CAT_ID": 34508, "ELEMENT_SET_NO": 999, "REV_AT_EPOCH": 87137, "BSTAR": 0.0016926, "MEAN_MOTION_DOT": 5.29e-05, "MEAN_MOTION_DDOT": 0, "GROUP": "iridium-33-debris"}, "tle": {"line1": "1 34508U 97051GZ  25334.78264450  .00005290  00000+0  16926-2 0  9996", "line2": "2 34508  86.3691 107.7106 0065293 211.8726 147.8515 14.38237848871374"}}, "geometry": {"type": "Point", "coordinates": [-72.30440856356495, -2.320924142216263]}}, {"type": "Feature", "properties": {"norad_id": 34521, "name": "IRIDIUM 33 DEB", "group": "iridium-33-debris", "lat": 42.37606347194572, "lon": 38.95184708232526, "alt_km": 679.4783682068919, "timestamp": "2025-12-01T03:58:49.183970+00:00", "meta": {"OBJECT_NAME": "IRIDIUM 33 DEB", "OBJECT_ID": "1997-051HN", "EPOCH": "2025-11-30T14:39:22.745952", "MEAN_MOTION": 14.63188285, "ECCENTRICITY": 0.0001285, "INCLINATION": 86.3814, "RA_OF_ASC_NODE": 35.8861, "ARG_OF_PERICENTER": 316.8405, "MEAN_ANOMALY": 43.2705, "EPHEMERIS_TYPE": 0, "CLASSIFICATION_TYPE": "U", "NORAD_CAT_ID": 34521, "ELEMENT_SET_NO": 999, "REV_AT_EPOCH": 88295, "BSTAR": 0.00095069, "MEAN_MOTION_DOT": 4.913e-05, "MEAN_MOTION_DDOT": 0, "GROUP": "iridium-33-debris"}, "tle": {"line1": "1 34521U 97051HN  25334.61067993  .00004913  00000+0  95069-3 0  9993", "line2": "2 34521  86.3814  35.8861 0001285 316.8405  43.2705 14.63188285882950"}}, "geometry": {"type": "Point", "coordinates": [38.95184708232526, 42.37606347194572]}}, {"type": "Feature", "properties": {"norad_id": 34525, "name": "IRIDIUM 33 DEB", "group": "iridium-33-debris", "lat": -9.805528787818083, "lon": 51.15495894938451, "alt_km": 756.2753872516223, "timestamp": "2025-12-01T03:58:49.183982+00:00", "meta": {"OBJECT_NAME": "IRIDIUM 33 DEB", "OBJECT_ID": "1997-051HS", "EPOCH": "2025-11-30T11:27:09.750816", "MEAN_MOTION": 14.42854887, "ECCENTRICITY": 0.00063393, "INCLINATION": 86.3737, "RA_OF_ASC_NODE": 52.0767, "ARG_OF_PERICENTER": 123.3943, "MEAN_ANOMALY": 252.1879, "EPHEMERIS_TYPE": 0, "CLASSIFICATION_TYPE": "U", "NORAD_CAT_ID": 34525, "ELEMENT_SET_NO": 999, "REV_AT_EPOCH": 87911, "BSTAR": 0.00041659563, "MEAN_MOTION_DOT": 1.41e-05, "MEAN_MOTION_DDOT": 0, "GROUP": "iridium-33-debris"}, "tle": {"line1": "1 34525U 97051HS  25334.47719619  .00001410  00000+0  41660-3 0  9997", "line2": "2 34525  86.3737  52.0767 0006339 123.3943 252.1879 14.42854887879119"}}, "geometry": {"type": "Point", "coordinates": [51.15495894938451, -9.805528787818083]}}, {"type": "Feature", "properties": {"norad_id": 34529, "name": "IRIDIUM 33 DEB", "group": "iridium-33-debris", "lat": -20.28027293713968, "lon": 38.99887581660523, "alt_km": 762.9761359304475, "timestamp": "2025-12-01T03:58:49.183992+00:00", "meta": {"OBJECT_NAME": "IRIDIUM 33 DEB", "OBJECT_ID": "1997-051HW", "EPOCH": "2025-11-30T14:44:17.646432", "MEAN_MOTION": 14.40599936, "ECCENTRICITY": 0.0003396, "INCLINATION": 86.3651, "RA_OF_ASC_NODE": 40.5799, "ARG_OF_PERICENTER": 222.5196, "MEAN_ANOMALY": 137.5741, "EPHEMERIS_TYPE": 0, "CLASSIFICATION_TYPE": "U", "NORAD_CAT_ID": 34529, "ELEMENT_SET_NO": 999, "REV_AT_EPOCH": 87967, "BSTAR": 0.00012806, "MEAN_MOTION_DOT": 4.28e-06, "MEAN_MOTION_DDOT": 0, "GROUP": "iridium-33-debris"}, "tle": {"line1": "1 34529U 97051HW  25334.61409313  .00000428  00000+0  12806-3 0  9992", "line2": "2 34529  86.3651  40.5799 0003396 222.5196 137.5741 14.40599936879671"}}, "geometry": {"type": "Point", "coordinates": [38.99887581660523, -20.28027293713968]}}, {"type": "Feature", "properties": {"norad_id": 34538, "name": "IRIDIUM 33 DEB", "group": "iridium-33-debris", "lat": 84.08039196611924, "lon": 151.74623162725493, "alt_km": 741.6901792294484, "timestamp": "2025-12-01T03:58:49.184002+00:00", "meta": {"OBJECT_NAME": "IRIDIUM 33 DEB", "OBJECT_ID": "1997-051JF", "EPOCH": "2025-11-30T08:09:37.865376", "MEAN_MOTION": 14.42533574, "ECCENTRICITY": 0.00343652, "INCLINATION": 86.2788, "RA_OF_ASC_NODE": 10.9863, "ARG_OF_PERICENTER": 9.4679, "MEAN_ANOMALY": 118.8441, "EPHEMERIS_TYPE": 0, "CLASSIFICATION_TYPE": "U", "NORAD_CAT_ID": 34538, "ELEMENT_SET_NO": 999, "REV_AT_EPOCH": 87577, "BSTAR": 0.0009011179, "MEAN_MOTION_DOT": 3.027e-05, "MEAN_MOTION_DDOT": 0, "GROUP": "iridium-33-debris"}, "tle": {"line1": "1 34538U 97051JF  25334.34002159  .00003027  00000+0  90112-3 0  9993", "line2": "2 34538  86.2788  10.9863 0034365   9.4679 118.8441 14.42533574875776"}}, "geometry": {"type": "Point", "coordinates": [151.74623162725493, 84.08039196611924]}}, {"type": "Feature", "properties": {"norad_id": 34540, "name": "IRIDIUM 33 DEB", "group": "iridium-33-debris", "lat": -58.98314743667573, "lon": 139.06015363794756, "alt_km": 644.4609397998429, "timestamp": "2025-12-01T03:58:49.184012+00:00", "meta": {"OBJECT_NAME": "IRIDIUM 33 DEB", "OBJECT_ID": "1997-051JH", "EPOCH": "2025-11-30T09:40:35.449248", "MEAN_MOTION": 14.74906025, "ECCENTRICITY": 0.00144434, "INCLINATION": 86.3095, "RA_OF_ASC_NODE": 313.2462, "ARG_OF_PERICENTER": 205.1736, "MEAN_ANOMALY": 307.0086, "EPHEMERIS_TYPE": 0, "CLASSIFICATION_TYPE": "U", "NORAD_CAT_ID": 34540, "ELEMENT_SET_NO": 999, "REV_AT_EPOCH": 88839, "BSTAR": 0.0018472264, "MEAN_MOTION_DOT": 0.00012449, "MEAN_MOTION_DDOT": 0, "GROUP": "iridium-33-debris"}, "tle": {"line1": "1 34540U 97051JH  25334.40318807  .00012449  00000+0  18472-2 0  9999", "line2": "2 34540  86.3095 313.2462 0014443 205.1736 307.0086 14.74906025888398"}}, "geometry": {"type": "Point", "coordinates": [139.06015363794756, -58.98314743667573]}}, {"type": "Feature", "properties": {"norad_id": 34648, "name": "IRIDIUM 33 DEB", "group": "iridium-33-debris", "lat": 14.750985640913136, "lon": 105.6642622104923, "alt_km": 990.1795071375363, "timestamp": "2025-12-01T03:58:49.184022+00:00", "meta": {"OBJECT_NAME": "IRIDIUM 33 DEB", "OBJECT_ID": "1997-051JZ", "EPOCH": "2025-11-30T03:21:52.327872", "MEAN_MOTION": 14.10842647, "ECCENTRICITY": 0.01870558, "INCLINATION": 86.3903, "RA_OF_ASC_NODE": 287.0302, "ARG_OF_PERICENTER": 337.6977, "MEAN_ANOMALY": 21.6145, "EPHEMERIS_TYPE": 0, "CLASSIFICATION_TYPE": "U", "NORAD_CAT_ID": 34648, "ELEMENT_SET_NO": 999, "REV_AT_EPOCH": 84783, "BSTAR": 0.0086038013, "MEAN_MOTION_DOT": 0.00018198, "MEAN_MOTION_DDOT": 0, "GROUP": "iridium-33-debris"}, "tle": {"line1": "1 34648U 97051JZ  25334.14018898  .00018198  00000+0  86038-2 0  9996", "line2": "2 34648  86.3903 287.0302 0187055 337.6977  21.6145 14.10842647847832"}}, "geometry": {"type": "Point", "coordinates": [105.6642622104923, 14.750985640913136]}}, {"type": "Feature", "properties": {"norad_id": 34651, "name": "IRIDIUM 33 DEB", "group": "iridium-33-debris", "lat": -17.205868411228618, "lon": 144.34426518946657, "alt_km": 831.6732301186203, "timestamp": "2025-12-01T03:58:49.184032+00:00", "meta": {"OBJECT_NAME": "IRIDIUM 33 DEB", "OBJECT_ID": "1997-051KC", "EPOCH": "2025-11-29T18:22:04.604448", "MEAN_MOTION": 14.2548519, "ECCENTRICITY": 0.01418643, "INCLINATION": 86.2831, "RA_OF_ASC_NODE": 146.0932, "ARG_OF_PERICENTER": 245.3191, "MEAN_ANOMALY": 113.3174, "EPHEMERIS_TYPE": 0, "CLASSIFICATION_TYPE": "U", "NORAD_CAT_ID": 34651, "ELEMENT_SET_NO": 999, "REV_AT_EPOCH": 85711, "BSTAR": 0.0028410967, "MEAN_MOTION_DOT": 7.476e-05, "MEAN_MOTION_DDOT": 0, "GROUP": "iridium-33-debris"}, "tle": {"line1": "1 34651U 97051KC  25333.76533107  .00007476  00000+0  28411-2 0  9990", "line2": "2 34651  86.2831 146.0932 0141864 245.3191 113.3174 14.25485190857114"}}, "geometry": {"type": "Point", "coordinates": [144.34426518946657, -17.205868411228618]}}, {"type": "Feature", "properties": {"norad_id": 34652, "name": "IRIDIUM 33 DEB", "group": "iridium-33-debris", "lat": -38.291551198851664, "lon": -17.747634681760026, "alt_km": 675.2880071963018, "timestamp": "2025-12-01T03:58:49.184044+00:00", "meta": {"OBJECT_NAME": "IRIDIUM 33 DEB", "OBJECT_ID": "1997-051KD", "EPOCH": "2025-11-30T08:44:15.256608", "MEAN_MOTION": 14.61873444, "ECCENTRICITY": 0.00272917, "INCLINATION": 86.3321, "RA_OF_ASC_NODE": 345.512, "ARG_OF_PERICENTER": 342.4245, "MEAN_ANOMALY": 82.539, "EPHEMERIS_TYPE": 0, "CLASSIFICATION_TYPE": "U", "NORAD_CAT_ID": 34652, "ELEMENT_SET_NO": 999, "REV_AT_EPOCH": 88303, "BSTAR": 0.0010003681, "MEAN_MOTION_DOT": 5.048e-05, "MEAN_MOTION_DDOT": 0, "GROUP": "iridium-33-debris"}, "tle": {"line1": "1 34652U 97051KD  25334.36406547  .00005048  00000+0  10004-2 0  9997", "line2": "2 34652  86.3321 345.5120 0027291 342.4245  82.5390 14.61873444883031"}}, "geometry": {"type": "Point", "coordinates": [-17.747634681760026, -38.291551198851664]}}]}